#dP2025  1  1  6  0  0.00000000      96 __u+U IGS20 EXT  IAC
## 2347 280800.00000000   900.00000000 60676 0.2500000000000
+   53   G01G02G03G04G05G06G07G08G09G10G11G12G13G14G15G16G17
+        G18G19G20G21G22G23G24G25G26G27G28G29G30G31G32R01R02
+        R03R04R05R07R08R09R11R12R14R15R16R17R18R19R20R21R22
+        R24R26  0  0  0  0  0  0  0  0  0  0  0  0  0  0  0
+          0  0  0  0  0  0  0  0  0  0  0  0  0  0  0  0  0
++        10  8  8  7  8  8  8  7  7  8  8  8  8  8  8  8  7
++         8  8  7  8  8  8  8  8  7  7  8  8  9  8  8 10  9
++         9  9  9  9  9  9  9  8  8  8  9  8  8  7  8  8  8
++         8  8  0  0  0  0  0  0  0  0  0  0  0  0  0  0  0
++         0  0  0  0  0  0  0  0  0  0  0  0  0  0  0  0  0
%c M  cc GPS ccc cccc cccc cccc cccc ccccc ccccc ccccc ccccc
%c cc cc ccc ccc cccc cccc cccc cccc ccccc ccccc ccccc ccccc
%f  0.0000000  0.000000000  0.00000000000  0.000000000000000
%f  0.0000000  0.000000000  0.00000000000  0.000000000000000
%i    0    0    0    0      0      0      0      0         0
%i    0    0    0    0      0      0      0      0         0
/* IAC                                ULTRA-RAPID PREDICTION
/* S/V CLOCKS ARE ALIGNED TO GNSS TIME                      
/* G:C1WC2W R:C1PC2P E:C1XC5X C:C2IC6I J:C1CC2S             
/* PCV:IGS20_2317 OL/AL:FES2004  NONE     YN ORB:CoN CLK:CoN
*  2025 01 01 16 30  0.00000000
PG01 -11672.027132 -14648.733675 -18827.192886     10.818993
PG02 -10792.476457 -13275.768331 -19952.893464   -278.176158
PG03 -12433.176760 -23536.168530    264.991519    637.379925
PG04  -5412.463770 -16584.453961  20000.561231    505.244532
PG05   2912.992467  22672.875201  13295.647498   -197.756478
PG06 -23294.889335   6199.156411  11365.696010    -87.637133
PG07 -23994.437858  -7745.424221   9578.033040    -14.081179
PG08   2871.662671 -23038.762474 -12602.417386    451.760022
PG09 -12721.136970  -8284.543142  21701.804405    511.452456
PG10  15117.582094  -1829.554029 -21573.122469   -258.635086
PG11 -12897.256368  12509.384423  19579.962413   -752.521728
PG12   8957.412314  24913.386718  -2721.769512   -561.917164
PG13 -12492.165532  22238.263227  -7176.675686    692.044310
PG14 -17270.992191  -1982.323465 -20095.935929    571.742398
PG15    606.336180  23272.180783 -13177.477912    246.560253
PG16   4003.722615 -20010.147697  16393.648222    -88.558628
PG17 -19328.627953   7851.814230 -16146.686958    493.697870
PG18  25121.110385   5990.375049   6729.710916   -659.189675
PG19 -19641.243537  15335.204851  -8667.697923    581.009794
PG20  -6221.138469  15650.526810  20653.955237    367.412672
PG21  -4016.749718 -14761.678545 -21405.401631     99.537908
PG22 -13510.973196   6706.987694 -21483.295460    -89.921424
PG23  18316.208823  12462.938177 -14777.682435    395.327990
PG24   8394.973789  14923.018491 -20853.691473   -468.273936
PG25  17178.642748  18402.083786   8516.603161    497.366795
PG26  11230.086325 -11444.283072  20953.622194    -31.188973
PG27  11923.335224 -23319.162687  -2915.198580    -33.585128
PG28  24147.269950  -6224.792723   9138.173399   -524.217614
PG29  12084.479241   8930.372384  21857.349308   -550.933891
PG30 -26595.048214    712.850509  -2207.417134   -248.628247
PG31  17932.191675 -10604.901362  16431.051915   -218.796818
PG32  18788.646212 -12323.063115 -13772.302289   -549.259057
PR01  -8637.498112  21893.271092   9829.235442    109.767034
PR02  -1937.819374  24386.773929  -7309.801658    -38.776910
PR03   7065.317987  13173.403238 -20640.387779    114.254201
PR04  11522.168339  -4743.577833 -22223.621655    270.826684
PR05  10149.447869 -20105.643921 -11935.968071    143.091251
PR07  -7272.654814 -12713.818091  20909.870924     98.047133
PR08 -11650.912633   5157.777967  22167.004319     -6.228366
PR09  -9121.863939 -17841.241191  15850.242898    229.591284
PR11 -19344.242890  -7598.035571 -14796.791684      2.037598
PR12  -7193.035513   8375.604517 -22978.437468     49.099850
PR14  19242.596239  16730.113307    -10.716352     27.523995
PR15  18749.279707   6223.479387  16144.317332     72.604474
PR16   7195.353001  -8183.835028  23064.506266     32.117842
PR17  15994.741909   4241.840459  19441.553173    153.673504
PR18  24293.475876  -4484.821059   6271.693302    179.772561
PR19  21900.963099  -9927.173744  -8509.037890   -304.020625
PR20   3330.423303 -11374.042953 -22565.955887   -124.059908
PR21 -14869.849099  -4959.301437 -20108.366423   -164.516204
PR22 -24613.875351   4582.699166  -4886.451725    -53.761499
PR24  -2109.905561  11884.851047  22492.239999    -86.415660
PR26 -11391.575759   3092.665516  22631.569680   -132.220402
*  2025 01 01 16 45  0.00000000
PG01  -9442.114408 -14576.261182 -20090.626647     10.851554
PG02  -8384.479909 -13539.141237 -20856.219792   -278.167999
PG03 -12228.535719 -23517.435809  -2632.511402    637.387089
PG04  -4131.712361 -18391.563928  18667.437269    505.249933
PG05   1870.656945  21353.320738  15467.977321   -197.757539
PG06 -24427.356532   6028.882599   8778.246617    -87.661998
PG07 -22840.926508  -7946.498493  12018.076506    -14.080561
PG08   3722.551932 -24061.140803 -10174.192726    451.767459
PG09 -11499.368921 -10452.702788  21441.147044    511.466370
PG10  16297.268175    331.432620 -20813.049438   -258.649371
PG11 -15039.505324  12277.656763  18137.293761   -752.521301
PG12   8546.381023  24624.444822  -5523.511966   -561.919233
PG13 -13066.931129  22596.311950  -4384.602683    692.045424
PG14 -18238.809887  -4006.380111 -18928.836269    571.749037
PG15   -112.031883  24400.417482 -10837.978043    246.564283
PG16   5032.883899 -18223.266480  18109.612216    -88.550091
PG17 -18336.352490   6095.043035 -17903.438326    493.682711
PG18  24205.122907   6154.760958   9398.071746   -659.188786
PG19 -19168.211702  14276.849505 -11237.927758    581.013982
PG20  -7803.239689  13863.894965  21371.873107    367.412395
PG21  -1489.310170 -14956.884310 -21493.448364     99.539448
PG22 -14546.745300   4391.208122 -21379.001071    -89.923363
PG23  19003.851328  13865.983586 -12511.158892    395.334816
PG24   6083.798504  15195.180086 -21428.772619   -468.270663
PG25  17397.687657  19274.244604   5862.068777    497.366342
PG26  12665.005830  -9443.145772  21165.451371    -31.202296
PG27  12246.004027 -23294.567639    -42.981815    -33.584767
PG28  25048.018080  -6010.600159   6472.757092   -524.226687
PG29  10650.511056  10975.494293  21660.633038   -550.930952
PG30 -26703.402230    405.779581    578.699332   -248.620774
PG31  19723.780244 -10379.102821  14465.007756   -218.796073
PG32  18099.237119 -10714.460511 -15866.839164   -549.253118
PR01  -8305.799077  20540.614106  12635.428623    109.768140
PR02  -1896.842379  25121.859868  -4190.156202    -38.776733
PR03   6725.453098  15606.845357 -19001.471497    114.254782
PR04  10968.470908  -2003.858015 -22909.934886    270.827980
PR05   9693.884951 -18522.228404 -14583.091301    143.091714
PR07  -6920.287367 -15166.243189  19327.025274     98.047734
PR08 -11127.279775   2442.165114  22888.338120     -6.228629
PR09  -7520.305247 -16512.245446  17982.186088    229.593186
PR11 -20707.032308  -8563.572269 -12199.436255      2.035704
PR12  -9374.328020   6577.920131 -22775.104024     49.100151
PR14  19160.090610  16516.631971  -3200.641758     27.524003
PR15  20227.166539   7324.017906  13713.639759     72.604121
PR16   9387.255389  -6389.757012  22839.456372     32.118179
PR17  13616.192300   4995.730976  21008.403036    153.676578
PR18  23323.402542  -4349.184644   9323.114249    179.774201
PR19  22663.342357 -10378.218210  -5414.554817   -304.021898
PR20   5923.053993 -12236.198364 -21558.226602   -124.060183
PR21 -12410.549050  -5723.656056 -21525.156967   -164.519130
PR22 -23812.078368   4472.700753  -7968.403263    -53.763218
PR24  -4646.991506  12847.026945  21560.800486    -86.416902
PR26 -10892.939407    320.203825  23083.425700   -132.220118
EOF
